     2              NAVIGATION DATA                         RINEX VERSION / TYPE
CCRINEXN V1.6.0 UX  CDDIS               01-JUL-20 23:30     PGM / RUN BY / DATE 
IGS BROADCAST EPHEMERIS FILE                                COMMENT             
    0.4657D-08  0.1490D-07 -0.5960D-07 -0.1192D-06          ION ALPHA           
    0.8192D+05  0.8192D+05 -0.6554D+05 -0.5243D+06          ION BETA            
    0.186264514923D-08 0.621724893790D-14   503808     2112 DELTA-UTC: A0,A1,T,W
    18                                                      LEAP SECONDS        
                                                            END OF HEADER       
10 20  7  1  2  0  0.0-0.386787112802D-03-0.109139364213D-10 0.000000000000D+00
    0.750000000000D+02 0.946875000000D+01 0.476234122777D-08-0.228249589578D+01
    0.365078449249D-06 0.567004084587D-02 0.729411840439D-05 0.515366013718D+04
    0.266400000000D+06 0.782310962677D-07-0.279804015262D+01-0.128522515297D-06
    0.966189103803D+00 0.242343750000D+03-0.263935308662D+01-0.805104964425D-08
    0.540736809573D-09 0.100000000000D+01 0.211200000000D+04 0.000000000000D+00
    0.200000000000D+01 0.000000000000D+00 0.232830643654D-08 0.750000000000D+02
    0.262878000000D+06 0.400000000000D+01 0.000000000000D+00 0.000000000000D+00
12 20  7  1  2  0  0.0 0.995197333395D-04-0.488853402203D-11 0.000000000000D+00
    0.320000000000D+02 0.784062500000D+02 0.423874798944D-08-0.165065058059D+01
    0.414252281189D-05 0.800529762637D-02 0.346824526787D-05 0.515366993523D+04
    0.266400000000D+06 0.191852450371D-06 0.416249805492D+00 0.186264514923D-07
    0.978115492242D+00 0.322781250000D+03 0.116383420198D+01-0.816676875013D-08
    0.871464871438D-10 0.100000000000D+01 0.211200000000D+04 0.000000000000D+00
    0.200000000000D+01 0.000000000000D+00-0.121071934700D-07 0.320000000000D+02
    0.259218000000D+06 0.400000000000D+01 0.000000000000D+00 0.000000000000D+00
13 20  7  1  2  0  0.0 0.228495337069D-04 0.329691829393D-11 0.000000000000D+00
    0.620000000000D+02-0.200625000000D+02 0.472412535021D-08 0.124510119283D+01
   -0.101141631603D-05 0.418514455669D-02 0.848993659020D-05 0.515365704918D+04
    0.266400000000D+06-0.968575477600D-07-0.162061167906D+01 0.121071934700D-06
    0.967426833439D+00 0.220562500000D+03 0.105870784380D+01-0.807033616190D-08
   -0.437518224390D-09 0.100000000000D+01 0.211200000000D+04 0.000000000000D+00
    0.200000000000D+01 0.000000000000D+00-0.111758708954D-07 0.620000000000D+02
    0.259218000000D+06 0.400000000000D+01 0.000000000000D+00 0.000000000000D+00
14 20  7  1  2  0  0.0-0.199349597096D-05 0.284217094304D-11 0.000000000000D+00
    0.200000000000D+02-0.356250000000D+02 0.485555939640D-08 0.172219648666D+01
   -0.207312405109D-05 0.115393252345D-01 0.818818807602D-05 0.515365708160D+04
    0.266400000000D+06-0.143423676491D-06-0.166785875429D+01-0.303611159325D-06
    0.960030783376D+00 0.224062500000D+03-0.191022283117D+01-0.812212403335D-08
   -0.498235039203D-09 0.100000000000D+01 0.211200000000D+04 0.000000000000D+00
    0.200000000000D+01 0.000000000000D+00-0.977888703346D-08 0.200000000000D+02
    0.264979000000D+06 0.400000000000D+01 0.000000000000D+00 0.000000000000D+00
15 20  7  1  2  0  0.0-0.220614951104D-03 0.261479726760D-11 0.000000000000D+00
    0.860000000000D+02-0.274062500000D+02 0.586560146870D-08 0.109442771119D+01
   -0.119954347610D-05 0.123912278796D-01 0.717677175999D-05 0.515370089722D+04
    0.266400000000D+06-0.109896063805D-06-0.185452700027D+01 0.208616256714D-06
    0.927912689048D+00 0.227625000000D+03 0.887210078787D+00-0.881715298410D-08
   -0.448947271885D-09 0.100000000000D+01 0.211200000000D+04 0.000000000000D+00
    0.200000000000D+01 0.000000000000D+00-0.107102096081D-07 0.860000000000D+02
    0.259218000000D+06 0.400000000000D+01 0.000000000000D+00 0.000000000000D+00
16 20  7  1  2  0  0.0-0.177074689418D-03-0.477484718431D-11 0.000000000000D+00
    0.460000000000D+02 0.873437500000D+02 0.417945980556D-08 0.277544453439D+01
    0.431388616562D-05 0.114540656796D-01 0.376440584660D-05 0.515378426170D+04
    0.266400000000D+06-0.726431608200D-07 0.435098733986D+00-0.987201929092D-07
    0.978322506854D+00 0.316562500000D+03 0.634907455815D+00-0.802676291832D-08
    0.141434462742D-09 0.100000000000D+01 0.211200000000D+04 0.000000000000D+00
    0.200000000000D+01 0.000000000000D+00-0.107102096081D-07 0.460000000000D+02
    0.259251000000D+06 0.400000000000D+01 0.000000000000D+00 0.000000000000D+00
17 20  7  1  2  0  0.0 0.289018731564D-03 0.591171556152D-11 0.000000000000D+00
    0.400000000000D+02-0.746562500000D+02 0.386301805306D-08 0.185254028144D+01
   -0.400282442570D-05 0.132269699825D-01 0.456348061562D-05 0.515372294044D+04
    0.266400000000D+06 0.126659870148D-06 0.145089648412D+01-0.279396772385D-06
    0.983632388923D+00 0.301656250000D+03-0.164124231011D+01-0.789997192268D-08
   -0.146791828755D-09 0.100000000000D+01 0.211200000000D+04 0.000000000000D+00
    0.200000000000D+01 0.000000000000D+00-0.107102096081D-07 0.400000000000D+02
    0.259218000000D+06 0.400000000000D+01 0.000000000000D+00 0.000000000000D+00
18 20  7  1  2  0  0.0 0.234665814787D-03 0.100044417195D-10 0.000000000000D+00
    0.212000000000D+03-0.635625000000D+02 0.416517349620D-08 0.355564505226D+00
   -0.321865081787D-05 0.677807372995D-03 0.114440917969D-04 0.515372580910D+04
    0.266400000000D+06 0.745058059692D-08 0.246503907118D+01 0.316649675369D-07
    0.964373484952D+00 0.158875000000D+03 0.258819483846D+01-0.785497004817D-08
    0.361443627006D-09 0.100000000000D+01 0.211200000000D+04 0.000000000000D+00
    0.200000000000D+01 0.000000000000D+00-0.791624188423D-08 0.468000000000D+03
    0.259218000000D+06 0.400000000000D+01 0.000000000000D+00 0.000000000000D+00
19 20  7  1  2  0  0.0-0.138062052429D-03 0.511590769747D-11 0.000000000000D+00
    0.800000000000D+02-0.720937500000D+02 0.399552357245D-08-0.179977764810D+01
   -0.339373946190D-05 0.947493256535D-02 0.522658228874D-05 0.515369093895D+04
    0.266400000000D+06 0.335276126862D-07 0.149650658620D+01 0.206753611565D-06
    0.981851050632D+00 0.284906250000D+03 0.165469852904D+01-0.796640326124D-08
   -0.144291724615D-09 0.100000000000D+01 0.211200000000D+04 0.000000000000D+00
    0.200000000000D+01 0.000000000000D+00-0.153668224812D-07 0.800000000000D+02
    0.259218000000D+06 0.400000000000D+01 0.000000000000D+00 0.000000000000D+00
20 20  7  1  2  0  0.0 0.527397263795D-03-0.113686837722D-12 0.000000000000D+00
    0.123000000000D+03 0.123750000000D+02 0.543665502993D-08-0.739375148297D+00
    0.584870576858D-06 0.526268861722D-02 0.756606459618D-05 0.515364869690D+04
    0.266400000000D+06 0.186264514923D-07-0.292999129500D+01-0.670552253723D-07
    0.934672119588D+00 0.219406250000D+03 0.267450536082D+01-0.849999691613D-08
    0.613239829615D-09 0.100000000000D+01 0.211200000000D+04 0.000000000000D+00
    0.200000000000D+01 0.000000000000D+00-0.884756445885D-08 0.123000000000D+03
    0.259218000000D+06 0.400000000000D+01 0.000000000000D+00 0.000000000000D+00
21 20  7  1  2  0  0.0 0.182026997209D-04 0.466116034659D-11 0.000000000000D+00
    0.140000000000D+02-0.800312500000D+02 0.416160191885D-08-0.258552340961D+01
   -0.397302210331D-05 0.238230987452D-01 0.108014792204D-04 0.515512494659D+04
    0.266400000000D+06 0.210478901863D-06 0.237335389021D+01 0.264495611191D-06
    0.953664117081D+00 0.154906250000D+03-0.131715333878D+01-0.751567020069D-08
    0.359657838335D-09 0.100000000000D+01 0.211200000000D+04 0.000000000000D+00
    0.200000000000D+01 0.000000000000D+00-0.102445483208D-07 0.140000000000D+02
    0.260058000000D+06 0.400000000000D+01 0.000000000000D+00 0.000000000000D+00
22 20  7  1  2  0  0.0-0.774941872805D-03 0.227373675443D-11 0.000000000000D+00
    0.480000000000D+02 0.135312500000D+02 0.559094717111D-08 0.101783863935D+01
    0.678002834320D-06 0.698373164050D-02 0.711716711521D-05 0.515379287338D+04
    0.266400000000D+06-0.260770320892D-07-0.288267386365D+01-0.201165676117D-06
    0.931344298411D+00 0.229312500000D+03-0.112627499305D+01-0.854999899892D-08
    0.561809115890D-09 0.100000000000D+01 0.211200000000D+04 0.000000000000D+00
    0.200000000000D+01 0.000000000000D+00-0.181607902050D-07 0.480000000000D+02
    0.259200000000D+06 0.000000000000D+00 0.000000000000D+00 0.000000000000D+00
24 20  7  1  2  0  0.0-0.150580890477D-04-0.568434188608D-12 0.000000000000D+00
    0.920000000000D+02 0.685000000000D+02 0.496877839814D-08 0.387524307429D-01
    0.357255339623D-05 0.974428327754D-02 0.110883265734D-04 0.515365641022D+04
    0.266400000000D+06 0.428408384323D-07-0.762635978781D+00 0.126659870148D-06
    0.936277161622D+00 0.149343750000D+03 0.666327006760D+00-0.835249077191D-08
   -0.369658254893D-09 0.100000000000D+01 0.211200000000D+04 0.000000000000D+00
    0.280000000000D+01 0.000000000000D+00 0.279396772385D-08 0.920000000000D+02
    0.259218000000D+06 0.400000000000D+01 0.000000000000D+00 0.000000000000D+00
25 20  7  1  2  0  0.0 0.184560194612D-04 0.397903932026D-11 0.000000000000D+00
    0.390000000000D+02 0.959062500000D+02 0.445661420730D-08-0.185098657174D+01
    0.501424074173D-05 0.910945120268D-02 0.385381281376D-05 0.515377363586D+04
    0.266400000000D+06 0.135973095894D-06 0.346903186093D+00-0.171363353729D-06
    0.965469899628D+00 0.309375000000D+03 0.939618171006D+00-0.818105505950D-08
    0.155363614375D-09 0.100000000000D+01 0.211200000000D+04 0.000000000000D+00
    0.200000000000D+01 0.000000000000D+00 0.558793544769D-08 0.390000000000D+02
    0.261162000000D+06 0.400000000000D+01 0.000000000000D+00 0.000000000000D+00
